NORAD_CAT_ID,OBJECT_NAME,OBJECT_TYPE,EPOCH,MEAN_MOTION,ECCENTRICITY,INCLINATION,RA_OF_ASC_NODE,ARG_OF_PERICENTER,MEAN_ANOMALY,BSTAR,MEAN_MOTION_DOT,MEAN_MOTION_DDOT,TLE_LINE0,TLE_LINE1,TLE_LINE2,SEMIMAJOR_AXIS,PERIOD,APOGEE,PERIGEE,DECAYED
54055.0,STARLINK-5158,PAYLOAD,2023-02-28 21:14:28,15.08823824,0.0001221,53.2157,263.9453,90.9856,269.1276,2.2291e-05,6.7e-07,0.0,0 STARLINK-5158,1 54055U 22136E   23059.88505737  .00000067  00000-0  22291-4 0  9998,2 54055  53.2157 263.9453 0001221  90.9856 269.1276 15.08823824 20050,6917.93,95.439,540.64,538.95,0.0
54055.0,STARLINK-5158,PAYLOAD,2023-03-01 19:29:53,15.08845869,0.0001219,53.2151,259.7833,81.1605,278.9525,0.00065757,0.00010194,0.0,0 STARLINK-5158,1 54055U 22136E   23060.81241943  .00010194  00000-0  65757-3 0  9994,2 54055  53.2151 259.7833 0001219  81.1605 278.9525 15.08845869 20676,6917.862,95.437,540.571,538.884,0.0
54055.0,STARLINK-5158,PAYLOAD,2023-03-02 19:20:40,15.08844367,0.0001174,53.215,255.3245,61.302,298.809,0.00026405,3.917e-05,0.0,0 STARLINK-5158,1 54055U 22136E   23061.80601979  .00003917  00000-0  26405-3 0  9995,2 54055  53.2150 255.3245 0001174  61.3020 298.8090 15.08844367 20349,6917.867,95.437,540.544,538.92,0.0
54055.0,STARLINK-5158,PAYLOAD,2023-03-03 12:49:54,15.0884921,0.0001243,53.215,252.0516,69.167,290.9455,0.0002101,3.058e-05,0.0,0 STARLINK-5158,1 54055U 22136E   23062.53465640  .00003058  00000-0  21010-3 0  9992,2 54055  53.2150 252.0516 0001243  69.1670 290.9455 15.08849210 20450,6917.852,95.437,540.577,538.857,0.0
54055.0,STARLINK-5158,PAYLOAD,2023-03-03 19:11:26,15.08853909,0.0001277,53.2149,250.8612,77.463,282.6505,0.00027378,4.074e-05,0.0,0 STARLINK-5158,1 54055U 22136E   23062.79961278  .00004074  00000-0  27378-3 0  9990,2 54055  53.2149 250.8612 0001277  77.4630 282.6505 15.08853909 20494,6917.838,95.437,540.586,538.819,0.0
54055.0,STARLINK-5158,PAYLOAD,2023-03-04 12:40:41,15.0884404,6.91e-05,53.2152,247.591,27.1475,332.9553,0.00010135,1.326e-05,0.0,0 STARLINK-5158,1 54055U 22136E   23063.52825484  .00001326  00000-0  10135-3 0  9990,2 54055  53.2152 247.5910 0000691  27.1475 332.9553 15.08844040 21084,6917.868,95.437,540.211,539.255,0.0
54055.0,STARLINK-5158,PAYLOAD,2023-03-04 22:12:59,15.0884897,0.0001091,53.2148,245.8072,62.0954,298.0148,0.00017293,2.466e-05,0.0,0 STARLINK-5158,1 54055U 22136E   23063.92569210  .00002466  00000-0  17293-3 0  9994,2 54055  53.2148 245.8072 0001091  62.0954 298.0148 15.08848970 20665,6917.853,95.437,540.473,538.963,0.0
54055.0,STARLINK-5158,PAYLOAD,2023-03-05 12:31:28,15.08839156,8.48e-05,53.2159,243.129,61.2554,298.8523,6.0862e-06,-1.91e-06,0.0,0 STARLINK-5158,1 54055U 22136E   23064.52185609 -.00000191  00000-0  60862-5 0  9993,2 54055  53.2159 243.1290 0000848  61.2554 298.8523 15.08839156 21231,6917.883,95.438,540.335,539.161,0.0
54055.0,STARLINK-5158,PAYLOAD,2023-03-05 18:53:00,15.08846016,0.0001041,53.2166,241.9416,82.0372,278.0738,0.00013252,1.822e-05,0.0,0 STARLINK-5158,1 54055U 22136E   23064.78681264  .00001822  00000-0  13252-3 0  9999,2 54055  53.2166 241.9416 0001041  82.0372 278.0738 15.08846016 20791,6917.862,95.437,540.447,539.007,0.0
54055.0,STARLINK-5158,PAYLOAD,2023-03-06 20:19:11,15.08842627,0.000136,53.2157,237.1829,76.5992,283.5152,0.00014386,2.003e-05,0.0,0 STARLINK-5158,1 54055U 22136E   23065.84665639  .00002003  00000-0  14386-3 0  9996,2 54055  53.2157 237.1829 0001360  76.5992 283.5152 15.08842627 21433,6917.872,95.437,540.678,538.797,0.0
54055.0,STARLINK-5158,PAYLOAD,2023-03-06 21:54:34,15.08844744,0.0001402,53.2157,236.8854,76.2208,283.8941,0.0001924,2.776e-05,0.0,0 STARLINK-5158,1 54055U 22136E   23065.91289595  .00002776  00000-0  19240-3 0  9998,2 54055  53.2157 236.8854 0001402  76.2208 283.8941 15.08844744 20969,6917.866,95.437,540.701,538.761,0.0
54055.0,STARLINK-5158,PAYLOAD,2023-03-07 18:34:34,15.08850717,8.89e-05,53.2165,233.0191,69.8564,290.2524,0.00038972,5.922e-05,0.0,0 STARLINK-5158,1 54055U 22136E   23066.77401548  .00005922  00000-0  38972-3 0  9996,2 54055  53.2165 233.0191 0000889  69.8564 290.2524 15.08850717 21093,6917.848,95.437,540.328,539.098,0.0
54055.0,STARLINK-5158,PAYLOAD,2023-03-08 16:49:59,15.08839036,0.0001524,53.2142,228.8553,87.6288,272.4878,0.00015752,2.22e-05,0.0,0 STARLINK-5158,1 54055U 22136E   23067.70138221  .00002220  00000-0  15752-3 0  9994,2 54055  53.2142 228.8553 0001524  87.6288 272.4878 15.08839036 21714,6917.883,95.438,540.803,538.694,0.0
54055.0,STARLINK-5158,PAYLOAD,2023-03-08 20:00:45,15.0884477,0.000149,53.2141,228.2608,85.2423,274.874,0.00031456,4.722e-05,0.0,0 STARLINK-5158,1 54055U 22136E   23067.83386184  .00004722  00000-0  31456-3 0  9999,2 54055  53.2141 228.2608 0001490  85.2423 274.8740 15.08844770 21259,6917.866,95.437,540.762,538.7,0.0
54055.0,STARLINK-5158,PAYLOAD,2023-03-09 16:40:45,15.08859425,0.0001626,53.2127,224.3951,78.856,281.2615,0.00057693,8.911e-05,0.0,0 STARLINK-5158,1 54055U 22136E   23068.69497621  .00008911  00000-0  57693-3 0  9998,2 54055  53.2127 224.3951 0001626  78.8560 281.2615 15.08859425 21865,6917.821,95.436,540.811,538.561,0.0
54055.0,STARLINK-5158,PAYLOAD,2023-03-10 16:31:33,15.08839005,0.0001157,53.2136,219.9337,90.9742,269.1383,0.00011279,1.508e-05,0.0,0 STARLINK-5158,1 54055U 22136E   23069.68858465  .00001508  00000-0  11279-3 0  9990,2 54055  53.2136 219.9337 0001157  90.9742 269.1383 15.08839005 22016,6917.883,95.438,540.549,538.948,0.0
54055.0,STARLINK-5158,PAYLOAD,2023-03-11 10:00:48,15.08838319,0.0001226,53.2114,216.6634,84.4365,275.6767,0.00014418,2.007e-05,0.0,0 STARLINK-5158,1 54055U 22136E   23070.41722688  .00002007  00000-0  14418-3 0  9993,2 54055  53.2114 216.6634 0001226  84.4365 275.6767 15.08838319 21645,6917.886,95.438,540.599,538.902,0.0
54055.0,STARLINK-5158,PAYLOAD,2023-03-11 19:33:06,15.08851822,8.47e-05,53.217,214.8795,101.5623,258.5465,0.0002915,4.356e-05,0.0,0 STARLINK-5158,1 54055U 22136E   23070.81465962  .00004356  00000-0  29150-3 0  9994,2 54055  53.2170 214.8795 0000847 101.5623 258.5465 15.08851822 22180,6917.844,95.437,540.295,539.123,0.0
54055.0,STARLINK-5158,PAYLOAD,2023-03-12 09:51:36,15.08827493,0.000113,53.218,212.2088,73.9102,286.2014,1.3596e-05,-7.1e-07,0.0,0 STARLINK-5158,1 54055U 22136E   23071.41083522 -.00000071  00000-0  13596-4 0  9998,2 54055  53.2180 212.2088 0001130  73.9102 286.2014 15.08827493 22273,6917.919,95.438,540.565,539.002,0.0
54055.0,STARLINK-5158,PAYLOAD,2023-03-12 11:26:59,15.08831431,0.0001029,53.2175,211.9096,77.0046,283.1061,6.9224e-05,8.14e-06,0.0,0 STARLINK-5158,1 54055U 22136E   23071.47707370  .00000814  00000-0  69224-4 0  9991,2 54055  53.2175 211.9096 0001029  77.0046 283.1061 15.08831431 21804,6917.907,95.438,540.483,539.06,0.0
54055.0,STARLINK-5158,PAYLOAD,2023-03-12 13:02:22,15.08832617,8.74e-05,53.2171,211.6108,76.0167,284.0922,7.1498e-05,8.5e-06,0.0,0 STARLINK-5158,1 54055U 22136E   23071.54331340  .00000850  00000-0  71498-4 0  9995,2 54055  53.2171 211.6108 0000874  76.0167 284.0922 15.08832617 21815,6917.903,95.438,540.373,539.163,0.0
54055.0,STARLINK-5158,PAYLOAD,2023-03-13 11:17:45,15.08839415,0.0001285,53.2166,207.4451,95.3995,264.7144,2.6366e-05,1.32e-06,0.0,0 STARLINK-5158,1 54055U 22136E   23072.47066988  .00000132  00000-0  26366-4 0  9998,2 54055  53.2166 207.4451 0001285  95.3995 264.7144 15.08839415 22436,6917.882,95.438,540.636,538.858,0.0
54055.0,STARLINK-5158,PAYLOAD,2023-03-14 03:11:36,15.08845443,0.0001966,53.2147,204.4674,138.9219,221.1921,0.00016607,2.356e-05,0.0,0 STARLINK-5158,1 54055U 22136E   23073.13306428  .00002356  00000-0  16607-3 0  9994,2 54055  53.2147 204.4674 0001966 138.9219 221.1921 15.08845443 22537,6917.864,95.437,541.089,538.369,0.0
54055.0,STARLINK-5158,PAYLOAD,2023-03-14 11:08:32,15.0883864,0.0001793,53.215,202.9807,128.1005,232.0149,0.00015971,2.255e-05,0.0,0 STARLINK-5158,1 54055U 22136E   23073.46426902  .00002255  00000-0  15971-3 0  9991,2 54055  53.2150 202.9807 0001793 128.1005 232.0149 15.08838640 22583,6917.885,95.438,540.99,538.509,0.0
54055.0,STARLINK-5158,PAYLOAD,2023-03-15 03:02:23,15.08854297,0.0001415,53.2154,200.0124,80.9051,279.2101,0.00024698,3.646e-05,0.0,0 STARLINK-5158,1 54055U 22136E   23074.12666136  .00003646  00000-0  24698-3 0  9991,2 54055  53.2154 200.0124 0001415  80.9051 279.2101 15.08854297 22683,6917.837,95.437,540.681,538.723,0.0
54055.0,STARLINK-5158,PAYLOAD,2023-03-15 12:34:42,15.08854616,0.0001679,53.2173,198.2336,37.9195,322.1915,0.00023469,3.45e-05,0.0,0 STARLINK-5158,1 54055U 22136E   23074.52410184  .00003450  00000-0  23469-3 0  9993,2 54055  53.2173 198.2336 0001679  37.9195 322.1915 15.08854616 22260,6917.836,95.437,540.862,538.539,0.0
54055.0,STARLINK-5158,PAYLOAD,2023-03-16 04:28:34,15.08817211,0.000135,53.2152,195.2558,103.1147,256.9996,-0.00048907,-8.058e-05,0.0,0 STARLINK-5158,1 54055U 22136E   23075.18650864 -.00008058  00000-0 -48907-3 0  9992,2 54055  53.2152 195.2558 0001350 103.1147 256.9996 15.08817211 22846,6917.95,95.439,540.749,538.881,0.0
54055.0,STARLINK-5158,PAYLOAD,2023-03-16 10:50:06,15.08820907,0.0001232,53.2156,194.0672,103.5511,256.5618,-0.00048806,-8.043e-05,0.0,0 STARLINK-5158,1 54055U 22136E   23075.45146769 -.00008043  00000-0 -48806-3 0  9998,2 54055  53.2156 194.0672 0001232 103.5511 256.5618 15.08820907 22407,6917.939,95.439,540.656,538.951,0.0
54055.0,STARLINK-5158,PAYLOAD,2023-03-16 17:11:39,15.08827068,0.0001357,53.2151,192.8762,115.6804,244.4328,-8.1314e-05,-1.581e-05,0.0,0 STARLINK-5158,1 54055U 22136E   23075.71642700 -.00001581  00000-0 -81314-4 0  9995,2 54055  53.2151 192.8762 0001357 115.6804 244.4328 15.08827068 22921,6917.92,95.438,540.724,538.846,0.0
54055.0,STARLINK-5158,PAYLOAD,2023-03-17 07:30:08,15.08815253,0.0001178,53.2161,190.2011,104.8587,255.2536,-0.00012305,-2.244e-05,0.0,0 STARLINK-5158,1 54055U 22136E   23076.31260307 -.00002244  00000-0 -12305-3 0  9991,2 54055  53.2161 190.2011 0001178 104.8587 255.2536 15.08815253 23015,6917.956,95.439,540.636,539.006,0.0
